{
  "type": "FeatureCollection",
  "features": [
    {
      "type": "Feature",
      "properties": {
        "norad_id": 63632,
        "name": "SHENZHOU-20 (SZ-20)",
        "group": "stations",
        "lat": 35.755512181336535,
        "lon": 114.56878863263509,
        "alt_km": 384.9918905275563,
        "timestamp": "2025-12-05T14:45:14.120661+00:00",
        "meta_object_name": "SHENZHOU-20 (SZ-20)",
        "meta_object_id": "2025-082A",
        "meta_epoch": "2025-12-04T15:25:24.990240",
        "meta_mean_motion": 15.58669844,
        "meta_eccentricity": 0.00099747,
        "meta_inclination": 41.4682,
        "meta_ra_of_asc_node": 65.8455,
        "meta_arg_of_pericenter": 328.5002,
        "meta_mean_anomaly": 31.5238,
        "meta_ephemeris_type": 0,
        "meta_classification_type": "U",
        "meta_norad_cat_id": 63632,
        "meta_element_set_no": 999,
        "meta_rev_at_epoch": 25530,
        "meta_bstar": 0.00047697443,
        "meta_mean_motion_dot": 0.00037639,
        "meta_mean_motion_ddot": 0,
        "tle_line1": "1 63632U 25082A   25338.64265035  .00037639  00000+0  47697-3 0  9992",
        "tle_line2": "2 63632  41.4682  65.8455 0009974 328.5002  31.5238 15.58669844255302"
      },
      "geometry": {
        "type": "Point",
        "coordinates": [
          114.56878863263509,
          35.755512181336535
        ]
      }
    },
    {
      "type": "Feature",
      "properties": {
        "norad_id": 64751,
        "name": "PROGRESS-MS 31",
        "group": "stations",
        "lat": -29.997679493326995,
        "lon": 24.971800631883315,
        "alt_km": 419.94303123635837,
        "timestamp": "2025-12-05T14:45:14.120671+00:00",
        "meta_object_name": "PROGRESS-MS 31",
        "meta_object_id": "2025-146A",
        "meta_epoch": "2025-12-04T13:02:29.700384",
        "meta_mean_motion": 15.49306035,
        "meta_eccentricity": 0.00035956,
        "meta_inclination": 51.6299,
        "meta_ra_of_asc_node": 183.0583,
        "meta_arg_of_pericenter": 202.7086,
        "meta_mean_anomaly": 157.3744,
        "meta_ephemeris_type": 0,
        "meta_classification_type": "U",
        "meta_norad_cat_id": 64751,
        "meta_element_set_no": 999,
        "meta_rev_at_epoch": 675,
        "meta_bstar": 0.00029317999,
        "meta_mean_motion_dot": 0.0001591,
        "meta_mean_motion_ddot": 0,
        "tle_line1": "1 64751U 25146A   25338.54339931  .00015910  00000+0  29318-3 0  9990",
        "tle_line2": "2 64751  51.6299 183.0583 0003595 202.7086 157.3744 15.49306035  6757"
      },
      "geometry": {
        "type": "Point",
        "coordinates": [
          24.971800631883315,
          -29.997679493326995
        ]
      }
    },
    {
      "type": "Feature",
      "properties": {
        "norad_id": 64786,
        "name": "TIANZHOU-9",
        "group": "stations",
        "lat": 35.75551275533236,
        "lon": 114.5687903357548,
        "alt_km": 384.991890611087,
        "timestamp": "2025-12-05T14:45:14.120684+00:00",
        "meta_object_name": "TIANZHOU-9",
        "meta_object_id": "2025-149A",
        "meta_epoch": "2025-12-04T15:25:24.990240",
        "meta_mean_motion": 15.58669844,
        "meta_eccentricity": 0.00099747,
        "meta_inclination": 41.4682,
        "meta_ra_of_asc_node": 65.8455,
        "meta_arg_of_pericenter": 328.5002,
        "meta_mean_anomaly": 31.5238,
        "meta_ephemeris_type": 0,
        "meta_classification_type": "U",
        "meta_norad_cat_id": 64786,
        "meta_element_set_no": 999,
        "meta_rev_at_epoch": 25530,
        "meta_bstar": 0.00047697443,
        "meta_mean_motion_dot": 0.00037639,
        "meta_mean_motion_ddot": 0,
        "tle_line1": "1 64786U 25149A   25338.64265035  .00037639  00000+0  47697-3 0  9997",
        "tle_line2": "2 64786  41.4682  65.8455 0009974 328.5002  31.5238 15.58669844255303"
      },
      "geometry": {
        "type": "Point",
        "coordinates": [
          114.5687903357548,
          35.75551275533236
        ]
      }
    },
    {
      "type": "Feature",
      "properties": {
        "norad_id": 65077,
        "name": "CREW DRAGON 11",
        "group": "stations",
        "lat": -29.997680528528868,
        "lon": 24.971801860286117,
        "alt_km": 419.94303131681227,
        "timestamp": "2025-12-05T14:45:14.120694+00:00",
        "meta_object_name": "CREW DRAGON 11",
        "meta_object_id": "2025-166A",
        "meta_epoch": "2025-12-04T13:02:29.700384",
        "meta_mean_motion": 15.49306035,
        "meta_eccentricity": 0.00035956,
        "meta_inclination": 51.6299,
        "meta_ra_of_asc_node": 183.0583,
        "meta_arg_of_pericenter": 202.7086,
        "meta_mean_anomaly": 157.3744,
        "meta_ephemeris_type": 0,
        "meta_classification_type": "U",
        "meta_norad_cat_id": 65077,
        "meta_element_set_no": 999,
        "meta_rev_at_epoch": 214,
        "meta_bstar": 0.00029317999,
        "meta_mean_motion_dot": 0.0001591,
        "meta_mean_motion_ddot": 0,
        "tle_line1": "1 65077U 25166A   25338.54339931  .00015910  00000+0  29318-3 0  9994",
        "tle_line2": "2 65077  51.6299 183.0583 0003595 202.7086 157.3744 15.49306035  2148"
      },
      "geometry": {
        "type": "Point",
        "coordinates": [
          24.971801860286117,
          -29.997680528528868
        ]
      }
    },
    {
      "type": "Feature",
      "properties": {
        "norad_id": 65304,
        "name": "DRAGON CRS-33",
        "group": "stations",
        "lat": -29.997681113644134,
        "lon": 24.971802554602153,
        "alt_km": 419.94303136228973,
        "timestamp": "2025-12-05T14:45:14.120707+00:00",
        "meta_object_name": "DRAGON CRS-33",
        "meta_object_id": "2025-186A",
        "meta_epoch": "2025-12-04T13:02:29.700384",
        "meta_mean_motion": 15.49306035,
        "meta_eccentricity": 0.00035956,
        "meta_inclination": 51.6299,
        "meta_ra_of_asc_node": 183.0583,
        "meta_arg_of_pericenter": 202.7086,
        "meta_mean_anomaly": 157.3744,
        "meta_ephemeris_type": 0,
        "meta_classification_type": "U",
        "meta_norad_cat_id": 65304,
        "meta_element_set_no": 999,
        "meta_rev_at_epoch": 11,
        "meta_bstar": 0.00029317999,
        "meta_mean_motion_dot": 0.0001591,
        "meta_mean_motion_ddot": 0,
        "tle_line1": "1 65304U 25186A   25338.54339931  .00015910  00000+0  29318-3 0  9999",
        "tle_line2": "2 65304  51.6299 183.0583 0003595 202.7086 157.3744 15.49306035   116"
      },
      "geometry": {
        "type": "Point",
        "coordinates": [
          24.971802554602153,
          -29.997681113644134
        ]
      }
    },
    {
      "type": "Feature",
      "properties": {
        "norad_id": 65586,
        "name": "PROGRESS-MS 32",
        "group": "stations",
        "lat": -29.997681563731874,
        "lon": 24.971803088690343,
        "alt_km": 419.9430313972689,
        "timestamp": "2025-12-05T14:45:14.120717+00:00",
        "meta_object_name": "PROGRESS-MS 32",
        "meta_object_id": "2025-204A",
        "meta_epoch": "2025-12-04T13:02:29.700384",
        "meta_mean_motion": 15.49306035,
        "meta_eccentricity": 0.00035956,
        "meta_inclination": 51.6299,
        "meta_ra_of_asc_node": 183.0583,
        "meta_arg_of_pericenter": 202.7086,
        "meta_mean_anomaly": 157.3744,
        "meta_ephemeris_type": 0,
        "meta_classification_type": "U",
        "meta_norad_cat_id": 65586,
        "meta_element_set_no": 999,
        "meta_rev_at_epoch": 27,
        "meta_bstar": 0.00029317999,
        "meta_mean_motion_dot": 0.0001591,
        "meta_mean_motion_ddot": 0,
        "tle_line1": "1 65586U 25204A   25338.54339931  .00015910  00000+0  29318-3 0  9992",
        "tle_line2": "2 65586  51.6299 183.0583 0003595 202.7086 157.3744 15.49306035   275"
      },
      "geometry": {
        "type": "Point",
        "coordinates": [
          24.971803088690343,
          -29.997681563731874
        ]
      }
    },
    {
      "type": "Feature",
      "properties": {
        "norad_id": 65616,
        "name": "CYGNUS NG-23",
        "group": "stations",
        "lat": -29.997682058829362,
        "lon": 24.97180367618851,
        "alt_km": 419.9430314357469,
        "timestamp": "2025-12-05T14:45:14.120728+00:00",
        "meta_object_name": "CYGNUS NG-23",
        "meta_object_id": "2025-208A",
        "meta_epoch": "2025-12-04T13:02:29.700384",
        "meta_mean_motion": 15.49306035,
        "meta_eccentricity": 0.00035956,
        "meta_inclination": 51.6299,
        "meta_ra_of_asc_node": 183.0583,
        "meta_arg_of_pericenter": 202.7086,
        "meta_mean_anomaly": 157.3744,
        "meta_ephemeris_type": 0,
        "meta_classification_type": "U",
        "meta_norad_cat_id": 65616,
        "meta_element_set_no": 999,
        "meta_rev_at_epoch": 22,
        "meta_bstar": 0.00029317999,
        "meta_mean_motion_dot": 0.0001591,
        "meta_mean_motion_ddot": 0,
        "tle_line1": "1 65616U 25208A   25338.54339931  .00015910  00000+0  29318-3 0  9990",
        "tle_line2": "2 65616  51.6299 183.0583 0003595 202.7086 157.3744 15.49306035   224"
      },
      "geometry": {
        "type": "Point",
        "coordinates": [
          24.97180367618851,
          -29.997682058829362
        ]
      }
    }
  ]
}